NORAD_CAT_ID,OBJECT_NAME,OBJECT_TYPE,EPOCH,MEAN_MOTION,ECCENTRICITY,INCLINATION,RA_OF_ASC_NODE,ARG_OF_PERICENTER,MEAN_ANOMALY,BSTAR,MEAN_MOTION_DOT,MEAN_MOTION_DDOT,TLE_LINE0,TLE_LINE1,TLE_LINE2,SEMIMAJOR_AXIS,PERIOD,APOGEE,PERIGEE,DECAYED
51852.0,STARLINK-3542,PAYLOAD,2023-11-26 19:46:28,15.08841892,0.0001422,53.2143,162.4871,86.9497,273.1658,4.6092e-05,4.46e-06,0.0,0 STARLINK-3542,1 51852U 22022A   23330.82394498  .00000446  00000-0  46092-4 0  9996,2 51852  53.2143 162.4871 0001422  86.9497 273.1658 15.08841892 97129,6917.875,95.437,540.723,538.756,0.0
51852.0,STARLINK-3542,PAYLOAD,2023-11-27 13:15:43,15.08865156,0.0001333,53.216,159.2125,104.09,256.024,-0.00036931,-6.165e-05,0.0,0 STARLINK-3542,1 51852U 22022A   23331.55258494 -.00006165  00000-0 -36931-3 0  9998,2 51852  53.2160 159.2125 0001333 104.0900 256.0240 15.08865156 95984,6917.803,95.436,540.591,538.746,0.0
51852.0,STARLINK-3542,PAYLOAD,2023-11-27 18:01:52,15.08842002,0.0001563,53.2157,158.3214,90.207,269.9101,-1.9975e-05,-6.06e-06,0.0,0 STARLINK-3542,1 51852U 22022A   23331.75130560 -.00000606  00000-0 -19975-4 0  9997,2 51852  53.2157 158.3214 0001563  90.2070 269.9101 15.08842002 96017,6917.874,95.437,540.821,538.658,0.0
51852.0,STARLINK-3542,PAYLOAD,2023-11-28 17:52:53,15.08629289,0.0006745,53.216,153.8626,146.4005,213.7416,-0.0015245,-0.00024345,0.0,0 STARLINK-3542,1 51852U 22022A   23332.74506566 -.00024345  00000-0 -15245-2 0  9990,2 51852  53.2160 153.8626 0006745 146.4005 213.7416 15.08629289 97418,6918.525,95.451,545.056,535.723,0.0
51852.0,STARLINK-3542,PAYLOAD,2023-11-29 06:00:00,15.0883454,0.0001328,53.2139,151.5961,92.8698,132.3969,-4.0543e-05,-9.33e-06,0.0,0 STARLINK-3542,1 51852U 22022A   23333.25001157 -.00000933  00000-0 -40543-4 0  9991,2 51852  53.2139 151.5961 0001328  92.8698 132.3969 15.08834540 97490,6917.897,95.438,540.681,538.843,0.0
51852.0,STARLINK-3542,PAYLOAD,2023-11-29 08:00:01,15.08813446,0.0001339,53.2138,151.2218,95.3113,222.8597,0.0028508,0.00045342,0.0,0 STARLINK-3542,1 51852U 22022A   23333.33334491  .00045342  00000-0  28508-2 0  9996,2 51852  53.2138 151.2218 0001339  95.3113 222.8597 15.08813446  5845,6917.962,95.439,540.753,538.9,0.0
51852.0,STARLINK-3542,PAYLOAD,2023-11-30 11:12:42,15.08717898,0.0005078,53.2165,146.1332,144.9605,215.1722,0.0016526,0.00026028,0.0,0 STARLINK-3542,1 51852U 22022A   23334.46715329  .00026028  00000-0  16526-2 0  9991,2 51852  53.2165 146.1332 0005078 144.9605 215.1722 15.08717898 97677,6918.254,95.445,543.632,536.606,0.0
51852.0,STARLINK-3542,PAYLOAD,2023-11-30 19:09:39,15.08725231,0.0002072,53.2163,144.6459,85.2932,274.8297,0.0017834,0.0002812,0.0,0 STARLINK-3542,1 51852U 22022A   23334.79837664  .00028120  00000-0  17834-2 0  9992,2 51852  53.2163 144.6459 0002072  85.2932 274.8297 15.08725231 97724,6918.231,95.445,541.53,538.663,0.0
51852.0,STARLINK-3542,PAYLOAD,2023-12-01 11:03:28,15.08839317,0.000141,53.2162,141.6722,77.5171,282.5978,0.00011033,1.468e-05,0.0,0 STARLINK-3542,1 51852U 22022A   23335.46074900  .00001468  00000-0  11033-3 0  9995,2 51852  53.2162 141.6722 0001410  77.5171 282.5978 15.08839317 97821,6917.882,95.438,540.723,538.772,0.0
51852.0,STARLINK-3542,PAYLOAD,2023-12-01 17:25:00,15.08844798,0.0001432,53.2161,140.4831,76.3948,283.7204,0.00010981,1.46e-05,0.0,0 STARLINK-3542,1 51852U 22022A   23335.72570515  .00001460  00000-0  10981-3 0  9990,2 51852  53.2161 140.4831 0001432  76.3948 283.7204 15.08844798 96611,6917.866,95.437,540.721,538.74,0.0
51852.0,STARLINK-3542,PAYLOAD,2023-12-02 14:00:01,15.08881015,0.0001407,53.2148,136.6326,84.2825,256.9164,-0.00286,-0.00045568,0.0,0 STARLINK-3542,1 51852U 22022A   23336.58334491 -.00045568  00000-0 -28600-2 0  9991,2 51852  53.2148 136.6326 0001407  84.2825 256.9164 15.08881015 97998,6917.755,95.435,540.593,538.647,0.0
51852.0,STARLINK-3542,PAYLOAD,2023-12-02 22:00:00,15.08812461,0.0001389,53.2148,135.1374,79.4157,273.4119,6.3047e-06,-1.88e-06,0.0,0 STARLINK-3542,1 51852U 22022A   23336.91667824 -.00000188  00000-0  63047-5 0  9992,2 51852  53.2148 135.1374 0001389  79.4157 273.4119 15.08812461  5833,6917.965,95.439,540.79,538.869,0.0
51852.0,STARLINK-3542,PAYLOAD,2023-12-03 10:45:03,15.08836771,0.0001471,53.2173,132.7504,99.7822,260.3336,-4.4729e-05,-1e-05,0.0,0 STARLINK-3542,1 51852U 22022A   23337.44795217 -.00001000  00000-0 -44729-4 0  9999,2 51852  53.2173 132.7504 0001471  99.7822 260.3336 15.08836771 98125,6917.89,95.438,540.773,538.738,0.0
51852.0,STARLINK-3542,PAYLOAD,2023-12-03 13:55:49,15.08831935,0.0001335,53.2176,132.1552,102.3233,257.7909,-6.8574e-05,-1.379e-05,0.0,0 STARLINK-3542,1 51852U 22022A   23337.58043576 -.00001379  00000-0 -68574-4 0  9991,2 51852  53.2176 132.1552 0001335 102.3233 257.7909 15.08831935 96896,6917.905,95.438,540.694,538.847,0.0
51852.0,STARLINK-3542,PAYLOAD,2023-12-03 17:06:36,15.08829938,0.0001441,53.2169,131.56,112.1185,247.996,-9.0811e-05,-1.732e-05,0.0,0 STARLINK-3542,1 51852U 22022A   23337.71291737 -.00001732  00000-0 -90811-4 0  9992,2 51852  53.2169 131.5600 0001441 112.1185 247.9960 15.08829938 98168,6917.911,95.438,540.773,538.779,0.0
51852.0,STARLINK-3542,PAYLOAD,2023-12-04 10:35:50,15.08803006,0.0001644,53.2167,128.2856,112.9437,247.1729,0.00033841,5.097e-05,0.0,0 STARLINK-3542,1 51852U 22022A   23338.44155820  .00005097  00000-0  33841-3 0  9990,2 51852  53.2167 128.2856 0001644 112.9437 247.1729 15.08803006 97022,6917.993,95.44,540.996,538.721,0.0
51852.0,STARLINK-3542,PAYLOAD,2023-12-05 10:26:37,15.08834736,0.0001238,53.2169,123.8277,102.2811,257.832,0.00017284,2.464e-05,0.0,0 STARLINK-3542,1 51852U 22022A   23339.43515337  .00002464  00000-0  17284-3 0  9991,2 51852  53.2169 123.8277 0001238 102.2811 257.8320 15.08834736 98423,6917.896,95.438,540.618,538.905,0.0
51852.0,STARLINK-3542,PAYLOAD,2023-12-05 13:37:23,15.08836736,0.0001232,53.2169,123.2333,95.5795,264.5338,0.00018707,2.69e-05,0.0,0 STARLINK-3542,1 51852U 22022A   23339.56763255  .00002690  00000-0  18707-3 0  9991,2 51852  53.2169 123.2333 0001232  95.5795 264.5338 15.08836736 97198,6917.89,95.438,540.608,538.903,0.0
51852.0,STARLINK-3542,PAYLOAD,2023-12-06 10:17:25,15.08829186,0.0001263,53.2172,119.3666,92.2521,267.8615,0.0001045,1.375e-05,0.0,0 STARLINK-3542,1 51852U 22022A   23340.42876226  .00001375  00000-0  10450-3 0  9997,2 51852  53.2172 119.3666 0001263  92.2521 267.8615 15.08829186 98570,6917.913,95.438,540.652,538.905,0.0
51852.0,STARLINK-3542,PAYLOAD,2023-12-06 13:28:11,15.0883575,0.0001371,53.2165,118.7736,93.3174,266.7975,6.344e-06,-1.87e-06,0.0,0 STARLINK-3542,1 51852U 22022A   23340.56124204 -.00000187  00000-0  63440-5 0  9994,2 51852  53.2165 118.7736 0001371  93.3174 266.7975 15.08835750 97344,6917.893,95.438,540.707,538.81,0.0
51852.0,STARLINK-3542,PAYLOAD,2023-12-06 19:49:43,15.08837186,0.0001224,53.2166,117.5838,89.9062,270.207,1.4748e-05,-5.3e-07,0.0,0 STARLINK-3542,1 51852U 22022A   23340.82620119 -.00000053  00000-0  14748-4 0  9997,2 51852  53.2166 117.5838 0001224  89.9062 270.2070 15.08837186 97384,6917.889,95.438,540.601,538.907,0.0
51852.0,STARLINK-3542,PAYLOAD,2023-12-07 13:18:58,15.08840591,0.0001331,53.2169,114.3135,99.8264,260.2878,-1.754e-06,-3.16e-06,0.0,0 STARLINK-3542,1 51852U 22022A   23341.55484043 -.00000316  00000-0 -17540-5 0  9999,2 51852  53.2169 114.3135 0001331  99.8264 260.2878 15.08840591 97496,6917.879,95.438,540.664,538.823,0.0
51852.0,STARLINK-3542,PAYLOAD,2023-12-08 13:09:44,15.08839048,0.0001171,53.2176,109.8545,106.6411,253.471,0.0001084,1.438e-05,0.0,0 STARLINK-3542,1 51852U 22022A   23342.54843639  .00001438  00000-0  10840-3 0  9997,2 51852  53.2176 109.8545 0001171 106.6411 253.4710 15.08839048 97642,6917.883,95.438,540.558,538.938,0.0
51852.0,STARLINK-3542,PAYLOAD,2023-12-09 13:00:32,15.0884045,0.000125,53.2167,105.3934,89.5209,270.5926,4.0814e-05,3.62e-06,0.0,0 STARLINK-3542,1 51852U 22022A   23343.54203833  .00000362  00000-0  40814-4 0  9994,2 51852  53.2167 105.3934 0001250  89.5209 270.5926 15.08840450 97791,6917.879,95.438,540.609,538.879,0.0
51852.0,STARLINK-3542,PAYLOAD,2023-12-09 17:46:41,15.08818488,0.0001386,53.2165,104.5012,109.8294,250.2848,0.00036657,5.547e-05,0.0,0 STARLINK-3542,1 51852U 22022A   23343.74075936  .00005547  00000-0  36657-3 0  9996,2 51852  53.2165 104.5012 0001386 109.8294 250.2848 15.08818488 99074,6917.946,95.439,540.77,538.852,0.0
51852.0,STARLINK-3542,PAYLOAD,2023-12-10 08:05:09,15.08840258,0.0001612,53.216,101.8247,103.9833,256.1338,9.6657e-06,-1.34e-06,0.0,0 STARLINK-3542,1 51852U 22022A   23344.33691763 -.00000134  00000-0  96657-5 0  9990,2 51852  53.2160 101.8247 0001612 103.9833 256.1338 15.08840258 99164,6917.88,95.438,540.86,538.629,0.0
51852.0,STARLINK-3542,PAYLOAD,2023-12-10 14:26:42,15.08840071,0.0001654,53.2175,100.6362,111.3641,248.7528,1.0306e-05,-1.24e-06,0.0,0 STARLINK-3542,1 51852U 22022A   23344.60187709 -.00000124  00000-0  10306-4 0  9995,2 51852  53.2175 100.6362 0001654 111.3641 248.7528 15.08840071 97957,6917.88,95.438,540.889,538.601,0.0
51852.0,STARLINK-3542,PAYLOAD,2023-12-11 11:06:42,15.08839502,0.0001706,53.218,96.77,116.2082,243.9086,1.1563e-05,-1.04e-06,0.0,0 STARLINK-3542,1 51852U 22022A   23345.46299667 -.00000104  00000-0  11563-4 0  9991,2 51852  53.2180  96.7700 0001706 116.2082 243.9086 15.08839502 99332,6917.882,95.438,540.927,538.567,0.0
51852.0,STARLINK-3542,PAYLOAD,2023-12-11 14:17:29,15.08848341,0.0001429,53.2179,96.1767,100.0598,260.0555,-9.3542e-05,-1.777e-05,0.0,0 STARLINK-3542,1 51852U 22022A   23345.59547640 -.00001777  00000-0 -93542-4 0  9997,2 51852  53.2179  96.1767 0001429 100.0598 260.0555 15.08848341 98108,6917.855,95.437,540.708,538.731,0.0
51852.0,STARLINK-3542,PAYLOAD,2023-12-12 14:08:16,15.08838684,0.0001301,53.217,91.7142,92.1696,267.9445,9.9062e-06,-1.3e-06,0.0,0 STARLINK-3542,1 51852U 22022A   23346.58907977 -.00000130  00000-0  99062-5 0  9995,2 51852  53.2170  91.7142 0001301  92.1696 267.9445 15.08838684 98255,6917.884,95.438,540.649,538.849,0.0
